QIANFAN-89              
1 63175U 25046S   25257.25841969  .00000137  00000+0  19388-3 0  9996
2 63175  88.9845 329.2807 0016915  32.2588 327.9594 13.50978363 35324
QIANFAN-90              
1 63176U 25046T   25257.21317506  .00000125  00000+0  17502-3 0  9991
2 63176  88.9845 329.2576 0013829  32.3790 327.8207 13.50977303 35339
